{"type": "FeatureCollection", "features": [ {"type": "Feature", "properties": {"norad_id": 43437, "name": "SENTINEL-3B", "group": "resource", "lat": 53.18344078725482, "lon": -104.00493435980106, "alt_km": 796.7187562583258, "timestamp": "2025-12-25T07:00:33.700249+00:00", "meta": {"OBJECT_NAME": "SENTINEL-3B", "OBJECT_ID": "2018-039A", "EPOCH": "2025-12-24T22:00:21.623616", "MEAN_MOTION": 14.26738665, "ECCENTRICITY": 0.00015914, "INCLINATION": 98.625, "RA_OF_ASC_NODE": 63.9267, "ARG_OF_PERICENTER": 89.6451, "MEAN_ANOMALY": 270.4911, "EPHEMERIS_TYPE": 0, "CLASSIFICATION_TYPE": "U", "NORAD_CAT_ID": 43437, "ELEMENT_SET_NO": 999, "REV_AT_EPOCH": 39927, "BSTAR": 7.868325e-05, "MEAN_MOTION_DOT": 1.47e-06, "MEAN_MOTION_DDOT": 0}, "tle": {"line1": "1 43437U 18039A   25358.91691694  .00000147  00000+0  78683-4 0  9997", "line2": "2 43437  98.6250  63.9267 0001591  89.6451 270.4911 14.26738665399277"}}, "geometry": {"type": "Point", "coordinates": [-104.00493435980106, 53.18344078725482]}}, {"type": "Feature", "properties": {"norad_id": 43461, "name": "GAOFEN-5 01", "group": "resource", "lat": -14.591931864832095, "lon": 140.26583195431257, "alt_km": 696.2297360760895, "timestamp": "2025-12-25T07:00:33.700259+00:00", "meta": {"OBJECT_NAME": "GAOFEN-5 01", "OBJECT_ID": "2018-043A", "EPOCH": "2025-12-24T20:15:17.532288", "MEAN_MOTION": 14.60422427, "ECCENTRICITY": 5.289e-05, "INCLINATION": 98.4345, "RA_OF_ASC_NODE": 322.0236, "ARG_OF_PERICENTER": 244.9883, "MEAN_ANOMALY": 115.1262, "EPHEMERIS_TYPE": 0, "CLASSIFICATION_TYPE": "U", "NORAD_CAT_ID": 43461, "ELEMENT_SET_NO": 999, "REV_AT_EPOCH": 40624, "BSTAR": 0.00010643871, "MEAN_MOTION_DOT": 4.67e-06, "MEAN_MOTION_DDOT": 0}, "tle": {"line1": "1 43461U 18043A   25358.84395292  .00000467  00000+0  10644-3 0  9993", "line2": "2 43461  98.4345 322.0236 0000528 244.9883 115.1262 14.60422427406240"}}, "geometry": {"type": "Point", "coordinates": [140.26583195431257, -14.591931864832095]}}, {"type": "Feature", "properties": {"norad_id": 43484, "name": "GAOFEN-6", "group": "resource", "lat": -18.641937245153912, "lon": -119.51436876694788, "alt_km": 653.9651489151593, "timestamp": "2025-12-25T07:00:33.700269+00:00", "meta": {"OBJECT_NAME": "GAOFEN-6", "OBJECT_ID": "2018-048A", "EPOCH": "2025-12-24T23:36:25.804800", "MEAN_MOTION": 14.76586031, "ECCENTRICITY": 0.00125803, "INCLINATION": 97.8012, "RA_OF_ASC_NODE": 62.8385, "ARG_OF_PERICENTER": 27.2845, "MEAN_ANOMALY": 332.9024, "EPHEMERIS_TYPE": 0, "CLASSIFICATION_TYPE": "U", "NORAD_CAT_ID": 43484, "ELEMENT_SET_NO": 999, "REV_AT_EPOCH": 40768, "BSTAR": 7.4237702e-05, "MEAN_MOTION_DOT": 4.69e-06, "MEAN_MOTION_DDOT": 0}, "tle": {"line1": "1 43484U 18048A   25358.98363200  .00000469  00000+0  74238-4 0  9994", "line2": "2 43484  97.8012  62.8385 0012580  27.2845 332.9024 14.76586031407687"}}, "geometry": {"type": "Point", "coordinates": [-119.51436876694788, -18.641937245153912]}}, {"type": "Feature", "properties": {"norad_id": 43585, "name": "GAOFEN-11 01", "group": "resource", "lat": 49.505197064644356, "lon": 53.66370549912799, "alt_km": 416.1423738344156, "timestamp": "2025-12-25T07:00:33.700279+00:00", "meta": {"OBJECT_NAME": "GAOFEN-11 01", "OBJECT_ID": "2018-063A", "EPOCH": "2025-12-24T23:02:41.131392", "MEAN_MOTION": 15.49547866, "ECCENTRICITY": 0.0003918, "INCLINATION": 97.1543, "RA_OF_ASC_NODE": 61.7932, "ARG_OF_PERICENTER": 249.5606, "MEAN_ANOMALY": 110.5226, "EPHEMERIS_TYPE": 0, "CLASSIFICATION_TYPE": "U", "NORAD_CAT_ID": 43585, "ELEMENT_SET_NO": 999, "REV_AT_EPOCH": 41331, "BSTAR": 0.00012184883, "MEAN_MOTION_DOT": 6.629e-05, "MEAN_MOTION_DDOT": 0}, "tle": {"line1": "1 43585U 18063A   25358.96019828  .00006629  00000+0  12185-3 0  9991", "line2": "2 43585  97.1543  61.7932 0003918 249.5606 110.5226 15.49547866413311"}}, "geometry": {"type": "Point", "coordinates": [53.66370549912799, 49.505197064644356]}}, {"type": "Feature", "properties": {"norad_id": 43613, "name": "ICESAT-2", "group": "resource", "lat": -87.98380092935821, "lon": -19.832865993659464, "alt_km": 490.55771347138307, "timestamp": "2025-12-25T07:00:33.700294+00:00", "meta": {"OBJECT_NAME": "ICESAT-2", "OBJECT_ID": "2018-070A", "EPOCH": "2025-12-24T20:24:11.287296", "MEAN_MOTION": 15.28224917, "ECCENTRICITY": 0.00030562, "INCLINATION": 92.0036, "RA_OF_ASC_NODE": 244.0056, "ARG_OF_PERICENTER": 109.5368, "MEAN_ANOMALY": 250.6211, "EPHEMERIS_TYPE": 0, "CLASSIFICATION_TYPE": "U", "NORAD_CAT_ID": 43613, "ELEMENT_SET_NO": 999, "REV_AT_EPOCH": 40583, "BSTAR": 0.00047730707, "MEAN_MOTION_DOT": 0.00013129, "MEAN_MOTION_DDOT": 0}, "tle": {"line1": "1 43613U 18070A   25358.85013064  .00013129  00000+0  47731-3 0  9993", "line2": "2 43613  92.0036 244.0056 0003056 109.5368 250.6211 15.28224917405834"}}, "geometry": {"type": "Point", "coordinates": [-19.832865993659464, -87.98380092935821]}}, {"type": "Feature", "properties": {"norad_id": 43719, "name": "HYSIS", "group": "resource", "lat": -31.46963004374752, "lon": 67.15058489541808, "alt_km": 639.5459050748814, "timestamp": "2025-12-25T07:00:33.700305+00:00", "meta": {"OBJECT_NAME": "HYSIS", "OBJECT_ID": "2018-096A", "EPOCH": "2025-12-24T23:01:57.582336", "MEAN_MOTION": 14.78677949, "ECCENTRICITY": 8.535e-05, "INCLINATION": 98.0079, "RA_OF_ASC_NODE": 61.8769, "ARG_OF_PERICENTER": 57.4747, "MEAN_ANOMALY": 302.6546, "EPHEMERIS_TYPE": 0, "CLASSIFICATION_TYPE": "U", "NORAD_CAT_ID": 43719, "ELEMENT_SET_NO": 999, "REV_AT_EPOCH": 38167, "BSTAR": 0.00021306259, "MEAN_MOTION_DOT": 1.51e-05, "MEAN_MOTION_DDOT": 0}, "tle": {"line1": "1 43719U 18096A   25358.95969424  .00001510  00000+0  21306-3 0  9990", "line2": "2 43719  98.0079  61.8769 0000853  57.4747 302.6546 14.78677949381679"}}, "geometry": {"type": "Point", "coordinates": [67.15058489541808, -31.46963004374752]}}, {"type": "Feature", "properties": {"norad_id": 43783, "name": "KAZSTSAT", "group": "resource", "lat": 57.2401460991984, "lon": 22.199633872661277, "alt_km": 566.8552047338671, "timestamp": "2025-12-25T07:00:33.700315+00:00", "meta": {"OBJECT_NAME": "KAZSTSAT", "OBJECT_ID": "2018-099AB", "EPOCH": "2025-12-24T14:44:04.878240", "MEAN_MOTION": 14.99370759, "ECCENTRICITY": 0.00062643, "INCLINATION": 97.4515, "RA_OF_ASC_NODE": 33.2868, "ARG_OF_PERICENTER": 277.0962, "MEAN_ANOMALY": 82.9549, "EPHEMERIS_TYPE": 0, "CLASSIFICATION_TYPE": "U", "NORAD_CAT_ID": 43783, "ELEMENT_SET_NO": 999, "REV_AT_EPOCH": 38514, "BSTAR": 5.1961687e-05, "MEAN_MOTION_DOT": 5.8e-06, "MEAN_MOTION_DDOT": 0}, "tle": {"line1": "1 43783U 18099AB  25358.61394535  .00000580  00000+0  51962-4 0  9990", "line2": "2 43783  97.4515  33.2868 0006264 277.0962  82.9549 14.99370759385141"}}, "geometry": {"type": "Point", "coordinates": [22.199633872661277, 57.2401460991984]}}, {"type": "Feature", "properties": {"norad_id": 43831, "name": "SAUDISAT 5A", "group": "resource", "lat": -40.08188760399976, "lon": -126.98106255038626, "alt_km": 502.5495338696446, "timestamp": "2025-12-25T07:00:33.700326+00:00", "meta": {"OBJECT_NAME": "SAUDISAT 5A", "OBJECT_ID": "2018-102A", "EPOCH": "2025-12-24T22:10:36.935040", "MEAN_MOTION": 15.25802579, "ECCENTRICITY": 0.00110804, "INCLINATION": 97.3331, "RA_OF_ASC_NODE": 58.8796, "ARG_OF_PERICENTER": 38.3123, "MEAN_ANOMALY": 321.89, "EPHEMERIS_TYPE": 0, "CLASSIFICATION_TYPE": "U", "NORAD_CAT_ID": 43831, "ELEMENT_SET_NO": 999, "REV_AT_EPOCH": 38908, "BSTAR": 0.00026898309, "MEAN_MOTION_DOT": 6.816e-05, "MEAN_MOTION_DDOT": 0}, "tle": {"line1": "1 43831U 18102A   25358.92403860  .00006816  00000+0  26898-3 0  9992", "line2": "2 43831  97.3331  58.8796 0011080  38.3123 321.8900 15.25802579389085"}}, "geometry": {"type": "Point", "coordinates": [-126.98106255038626, -40.08188760399976]}}, {"type": "Feature", "properties": {"norad_id": 43833, "name": "SAUDISAT 5B", "group": "resource", "lat": -70.3867045858544, "lon": 83.21653848633089, "alt_km": 497.5048193784369, "timestamp": "2025-12-25T07:00:33.700351+00:00", "meta": {"OBJECT_NAME": "SAUDISAT 5B", "OBJECT_ID": "2018-102C", "EPOCH": "2025-12-24T23:27:18.942048", "MEAN_MOTION": 15.26150443, "ECCENTRICITY": 0.00118125, "INCLINATION": 97.3426, "RA_OF_ASC_NODE": 61.6925, "ARG_OF_PERICENTER": 40.2138, "MEAN_ANOMALY": 319.9972, "EPHEMERIS_TYPE": 0, "CLASSIFICATION_TYPE": "U", "NORAD_CAT_ID": 43833, "ELEMENT_SET_NO": 999, "REV_AT_EPOCH": 38920, "BSTAR": 0.0002558097, "MEAN_MOTION_DOT": 6.548e-05, "MEAN_MOTION_DDOT": 0}, "tle": {"line1": "1 43833U 18102C   25358.97730257  .00006548  00000+0  25581-3 0  9992", "line2": "2 43833  97.3426  61.6925 0011812  40.2138 319.9972 15.26150443389207"}}, "geometry": {"type": "Point", "coordinates": [83.21653848633089, -70.3867045858544]}}, {"type": "Feature", "properties": {"norad_id": 44622, "name": "GAOFEN-10R", "group": "resource", "lat": 77.25304726481653, "lon": -91.75959027981487, "alt_km": 611.876924219845, "timestamp": "2025-12-25T07:00:33.700366+00:00", "meta": {"OBJECT_NAME": "GAOFEN-10R", "OBJECT_ID": "2019-066A", "EPOCH": "2025-12-24T22:33:08.830656", "MEAN_MOTION": 14.82832354, "ECCENTRICITY": 0.00070184, "INCLINATION": 98.0294, "RA_OF_ASC_NODE": 306.4946, "ARG_OF_PERICENTER": 5.9714, "MEAN_ANOMALY": 354.1582, "EPHEMERIS_TYPE": 0, "CLASSIFICATION_TYPE": "U", "NORAD_CAT_ID": 44622, "ELEMENT_SET_NO": 999, "REV_AT_EPOCH": 33655, "BSTAR": 0.00021319024, "MEAN_MOTION_DOT": 1.671e-05, "MEAN_MOTION_DDOT": 0}, "tle": {"line1": "1 44622U 19066A   25358.93968554  .00001671  00000+0  21319-3 0  9995", "line2": "2 44622  98.0294 306.4946 0007018   5.9714 354.1582 14.82832354336556"}}, "geometry": {"type": "Point", "coordinates": [-91.75959027981487, 77.25304726481653]}}]}